GLOBALSTAR M024         
1 25883U 99043A   25130.31152606  .00000006  00000+0  25152-2 0  9998
2 25883  51.9989 106.0798 0001601  28.9514 119.7168 11.10166424110682
GLOBALSTAR M027         
1 25884U 99043B   25129.39461247 -.00000056  00000+0  27787-3 0  9992
2 25884  52.0186 185.0363 0021363 287.8537  71.9926 11.04371968136950
GLOBALSTAR M054         
1 25885U 99043C   25129.71151865 -.00000020  00000+0  13098-2 0  9991
2 25885  52.0153 318.0878 0006693 106.3889  20.4371 11.39213216114664
GLOBALSTAR M053         
1 25886U 99043D   25130.07262613 -.00000075  00000+0 -17667-3 0  9995
2 25886  51.9983 262.2003 0002958  29.0653 142.8218 11.27665022115285
GLOBALSTAR M058         
1 25907U 99049A   25130.52846344 -.00000024  00000+0  81491-3 0  9993
2 25907  51.9928 209.7346 0002297 187.3998 172.6803 11.93198540148253
GLOBALSTAR M050         
1 25908U 99049B   25130.20804756 -.00000012  00000+0  85759-3 0  9998
2 25908  51.9979 221.1030 0008621 314.8598  63.0258 12.07452826148330
GLOBALSTAR M033         
1 25909U 99049C   25129.85263326 -.00000065  00000+0  25571-3 0  9994
2 25909  51.9896  96.5543 0013299 182.9722 177.1048 12.20291502531069
GLOBALSTAR M055         
1 25910U 99049D   25130.20826800 -.00000072  00000+0  19160-3 0  9994
2 25910  51.9999 108.1518 0007199  51.9051 308.2449 12.29427197163837
